CCSDS_OMM_VERS = 2.0
CREATION_DATE  = 
ORIGINATOR     = 

OBJECT_NAME    = STARLINK-35081
OBJECT_ID      = 2025-240C
CENTER_NAME    = EARTH
REF_FRAME      = TEME
TIME_SYSTEM    = UTC
MEAN_ELEMENT_THEORY = SGP/SGP4

EPOCH          = 2025-11-04T16:00:03.000096
MEAN_MOTION    = 15.82212924
ECCENTRICITY   = .0000715
INCLINATION    = 53.1524
RA_OF_ASC_NODE = 288.0518
ARG_OF_PERICENTER = 99.4816
MEAN_ANOMALY   = 260.2392

EPHEMERIS_TYPE = 0
CLASSIFICATION_TYPE = U
NORAD_CAT_ID   = 66148
ELEMENT_SET_NO = 999
REV_AT_EPOCH   = 278
BSTAR          = -.75223E-2
MEAN_MOTION_DOT = -.1406428E-1
MEAN_MOTION_DDOT = 0

CCSDS_OMM_VERS = 2.0
CREATION_DATE  = 
ORIGINATOR     = 

OBJECT_NAME    = STARLINK-35601
OBJECT_ID      = 2025-240D
CENTER_NAME    = EARTH
REF_FRAME      = TEME
TIME_SYSTEM    = UTC
MEAN_ELEMENT_THEORY = SGP/SGP4

EPOCH          = 2025-11-04T16:00:03.000096
MEAN_MOTION    = 15.82223501
ECCENTRICITY   = .0000759
INCLINATION    = 53.1524
RA_OF_ASC_NODE = 288.0472
ARG_OF_PERICENTER = 96.2895
MEAN_ANOMALY   = 265.5890

EPHEMERIS_TYPE = 0
CLASSIFICATION_TYPE = U
NORAD_CAT_ID   = 66149
ELEMENT_SET_NO = 999
REV_AT_EPOCH   = 278
BSTAR          = -.76375E-2
MEAN_MOTION_DOT = -.1426219E-1
MEAN_MOTION_DDOT = 0

CCSDS_OMM_VERS = 2.0
CREATION_DATE  = 
ORIGINATOR     = 

OBJECT_NAME    = STARLINK-35605
OBJECT_ID      = 2025-240E
CENTER_NAME    = EARTH
REF_FRAME      = TEME
TIME_SYSTEM    = UTC
MEAN_ELEMENT_THEORY = SGP/SGP4

EPOCH          = 2025-11-04T16:00:03.000096
MEAN_MOTION    = 15.82213092
ECCENTRICITY   = .0000661
INCLINATION    = 53.1526
RA_OF_ASC_NODE = 288.0428
ARG_OF_PERICENTER = 94.3868
MEAN_ANOMALY   = 269.7843

EPHEMERIS_TYPE = 0
CLASSIFICATION_TYPE = U
NORAD_CAT_ID   = 66150
ELEMENT_SET_NO = 999
REV_AT_EPOCH   = 278
BSTAR          = -.76977E-2
MEAN_MOTION_DOT = -.1435506E-1
MEAN_MOTION_DDOT = 0

CCSDS_OMM_VERS = 2.0
CREATION_DATE  = 
ORIGINATOR     = 

OBJECT_NAME    = STARLINK-35540
OBJECT_ID      = 2025-240F
CENTER_NAME    = EARTH
REF_FRAME      = TEME
TIME_SYSTEM    = UTC
MEAN_ELEMENT_THEORY = SGP/SGP4

EPOCH          = 2025-11-04T16:00:03.000096
MEAN_MOTION    = 15.82228153
ECCENTRICITY   = .0000745
INCLINATION    = 53.1522
RA_OF_ASC_NODE = 288.0384
ARG_OF_PERICENTER = 92.6483
MEAN_ANOMALY   = 273.4662

EPHEMERIS_TYPE = 0
CLASSIFICATION_TYPE = U
NORAD_CAT_ID   = 66151
ELEMENT_SET_NO = 999
REV_AT_EPOCH   = 278
BSTAR          = -.77322E-2
MEAN_MOTION_DOT = -.1442171E-1
MEAN_MOTION_DDOT = 0

CCSDS_OMM_VERS = 2.0
CREATION_DATE  = 
ORIGINATOR     = 

OBJECT_NAME    = STARLINK-35455
OBJECT_ID      = 2025-240G
CENTER_NAME    = EARTH
REF_FRAME      = TEME
TIME_SYSTEM    = UTC
MEAN_ELEMENT_THEORY = SGP/SGP4

EPOCH          = 2025-11-04T16:00:03.000096
MEAN_MOTION    = 15.82210540
ECCENTRICITY   = .0000635
INCLINATION    = 53.1518
RA_OF_ASC_NODE = 288.0333
ARG_OF_PERICENTER = 94.1780
MEAN_ANOMALY   = 274.2760

EPHEMERIS_TYPE = 0
CLASSIFICATION_TYPE = U
NORAD_CAT_ID   = 66152
ELEMENT_SET_NO = 999
REV_AT_EPOCH   = 278
BSTAR          = -.77621E-2
MEAN_MOTION_DOT = -.1445981E-1
MEAN_MOTION_DDOT = 0

CCSDS_OMM_VERS = 2.0
CREATION_DATE  = 
ORIGINATOR     = 

OBJECT_NAME    = STARLINK-34752
OBJECT_ID      = 2025-240H
CENTER_NAME    = EARTH
REF_FRAME      = TEME
TIME_SYSTEM    = UTC
MEAN_ELEMENT_THEORY = SGP/SGP4

EPOCH          = 2025-11-04T16:00:03.000096
MEAN_MOTION    = 15.82199834
ECCENTRICITY   = .0000545
INCLINATION    = 53.1521
RA_OF_ASC_NODE = 288.0290
ARG_OF_PERICENTER = 101.4775
MEAN_ANOMALY   = 269.3039

EPHEMERIS_TYPE = 0
CLASSIFICATION_TYPE = U
NORAD_CAT_ID   = 66153
ELEMENT_SET_NO = 999
REV_AT_EPOCH   = 278
BSTAR          = -.78398E-2
MEAN_MOTION_DOT = -.1458092E-1
MEAN_MOTION_DDOT = 0

CCSDS_OMM_VERS = 2.0
CREATION_DATE  = 
ORIGINATOR     = 

OBJECT_NAME    = STARLINK-34625
OBJECT_ID      = 2025-240J
CENTER_NAME    = EARTH
REF_FRAME      = TEME
TIME_SYSTEM    = UTC
MEAN_ELEMENT_THEORY = SGP/SGP4

EPOCH          = 2025-11-04T16:00:03.000096
MEAN_MOTION    = 15.82203029
ECCENTRICITY   = .0000674
INCLINATION    = 53.1521
RA_OF_ASC_NODE = 288.0242
ARG_OF_PERICENTER = 92.6910
MEAN_ANOMALY   = 280.1814

EPHEMERIS_TYPE = 0
CLASSIFICATION_TYPE = U
NORAD_CAT_ID   = 66154
ELEMENT_SET_NO = 999
REV_AT_EPOCH   = 283
BSTAR          = -.78699E-2
MEAN_MOTION_DOT = -.1463321E-1
MEAN_MOTION_DDOT = 0

CCSDS_OMM_VERS = 2.0
CREATION_DATE  = 
ORIGINATOR     = 

OBJECT_NAME    = STARLINK-35580
OBJECT_ID      = 2025-240K
CENTER_NAME    = EARTH
REF_FRAME      = TEME
TIME_SYSTEM    = UTC
MEAN_ELEMENT_THEORY = SGP/SGP4

EPOCH          = 2025-11-04T16:00:03.000096
MEAN_MOTION    = 15.82218814
ECCENTRICITY   = .0000728
INCLINATION    = 53.1519
RA_OF_ASC_NODE = 288.0199
ARG_OF_PERICENTER = 96.6166
MEAN_ANOMALY   = 278.2580

EPHEMERIS_TYPE = 0
CLASSIFICATION_TYPE = U
NORAD_CAT_ID   = 66155
ELEMENT_SET_NO = 999
REV_AT_EPOCH   = 278
BSTAR          = -.79451E-2
MEAN_MOTION_DOT = -.1476675E-1
MEAN_MOTION_DDOT = 0

CCSDS_OMM_VERS = 2.0
CREATION_DATE  = 
ORIGINATOR     = 

OBJECT_NAME    = STARLINK-35621
OBJECT_ID      = 2025-240L
CENTER_NAME    = EARTH
REF_FRAME      = TEME
TIME_SYSTEM    = UTC
MEAN_ELEMENT_THEORY = SGP/SGP4

EPOCH          = 2025-11-04T16:00:03.000096
MEAN_MOTION    = 15.82197101
ECCENTRICITY   = .0000652
INCLINATION    = 53.1519
RA_OF_ASC_NODE = 288.0147
ARG_OF_PERICENTER = 94.3908
MEAN_ANOMALY   = 282.8623

EPHEMERIS_TYPE = 0
CLASSIFICATION_TYPE = U
NORAD_CAT_ID   = 66156
ELEMENT_SET_NO = 999
REV_AT_EPOCH   = 278
BSTAR          = -.79763E-2
MEAN_MOTION_DOT = -.1480405E-1
MEAN_MOTION_DDOT = 0

CCSDS_OMM_VERS = 2.0
CREATION_DATE  = 
ORIGINATOR     = 

OBJECT_NAME    = STARLINK-35594
OBJECT_ID      = 2025-240M
CENTER_NAME    = EARTH
REF_FRAME      = TEME
TIME_SYSTEM    = UTC
MEAN_ELEMENT_THEORY = SGP/SGP4

EPOCH          = 2025-11-04T16:00:03.000096
MEAN_MOTION    = 15.82195791
ECCENTRICITY   = .0001019
INCLINATION    = 53.1521
RA_OF_ASC_NODE = 288.0104
ARG_OF_PERICENTER = 86.0112
MEAN_ANOMALY   = 293.4657

EPHEMERIS_TYPE = 0
CLASSIFICATION_TYPE = U
NORAD_CAT_ID   = 66157
ELEMENT_SET_NO = 999
REV_AT_EPOCH   = 278
BSTAR          = -.80587E-2
MEAN_MOTION_DOT = -.1494053E-1
MEAN_MOTION_DDOT = 0

CCSDS_OMM_VERS = 2.0
CREATION_DATE  = 
ORIGINATOR     = 

OBJECT_NAME    = STARLINK-35587
OBJECT_ID      = 2025-240N
CENTER_NAME    = EARTH
REF_FRAME      = TEME
TIME_SYSTEM    = UTC
MEAN_ELEMENT_THEORY = SGP/SGP4

EPOCH          = 2025-11-04T16:00:03.000096
MEAN_MOTION    = 15.82204414
ECCENTRICITY   = .0000786
INCLINATION    = 53.1522
RA_OF_ASC_NODE = 288.0058
ARG_OF_PERICENTER = 102.8200
MEAN_ANOMALY   = 278.6997

EPHEMERIS_TYPE = 0
CLASSIFICATION_TYPE = U
NORAD_CAT_ID   = 66158
ELEMENT_SET_NO = 999
REV_AT_EPOCH   = 278
BSTAR          = -.81106E-2
MEAN_MOTION_DOT = -.1502915E-1
MEAN_MOTION_DDOT = 0

CCSDS_OMM_VERS = 2.0
CREATION_DATE  = 
ORIGINATOR     = 

OBJECT_NAME    = STARLINK-35586
OBJECT_ID      = 2025-240P
CENTER_NAME    = EARTH
REF_FRAME      = TEME
TIME_SYSTEM    = UTC
MEAN_ELEMENT_THEORY = SGP/SGP4

EPOCH          = 2025-11-04T16:00:03.000096
MEAN_MOTION    = 15.82187279
ECCENTRICITY   = .0000707
INCLINATION    = 53.1518
RA_OF_ASC_NODE = 288.0008
ARG_OF_PERICENTER = 104.1876
MEAN_ANOMALY   = 279.6845

EPHEMERIS_TYPE = 0
CLASSIFICATION_TYPE = U
NORAD_CAT_ID   = 66159
ELEMENT_SET_NO = 999
REV_AT_EPOCH   = 278
BSTAR          = -.81585E-2
MEAN_MOTION_DOT = -.1509599E-1
MEAN_MOTION_DDOT = 0

