STARLINK-35081          
1 66148U 25240C   25308.66670139 -.01406428  00000+0 -75223-2 0  9991
2 66148  53.1524 288.0518 0000715  99.4816 260.2392 15.82212924  2786
STARLINK-35601          
1 66149U 25240D   25308.66670139 -.01426219  00000+0 -76375-2 0  9991
2 66149  53.1524 288.0472 0000759  96.2895 265.5890 15.82223501  2780
STARLINK-35605          
1 66150U 25240E   25308.66670139 -.01435506  00000+0 -76977-2 0  9990
2 66150  53.1526 288.0428 0000661  94.3868 269.7843 15.82213092  2784
STARLINK-35540          
1 66151U 25240F   25308.66670139 -.01442171  00000+0 -77322-2 0  9992
2 66151  53.1522 288.0384 0000745  92.6483 273.4662 15.82228153  2784
STARLINK-35455          
1 66152U 25240G   25308.66670139 -.01445981  00000+0 -77621-2 0  9997
2 66152  53.1518 288.0333 0000635  94.1780 274.2760 15.82210540  2788
STARLINK-34752          
1 66153U 25240H   25308.66670139 -.01458092  00000+0 -78398-2 0  9997
2 66153  53.1521 288.0290 0000545 101.4775 269.3039 15.82199834  2787
STARLINK-34625          
1 66154U 25240J   25308.66670139 -.01463321  00000+0 -78699-2 0  9993
2 66154  53.1521 288.0242 0000674  92.6910 280.1814 15.82203029  2830
STARLINK-35580          
1 66155U 25240K   25308.66670139 -.01476675  00000+0 -79451-2 0  9997
2 66155  53.1519 288.0199 0000728  96.6166 278.2580 15.82218814  2786
STARLINK-35621          
1 66156U 25240L   25308.66670139 -.01480405  00000+0 -79763-2 0  9990
2 66156  53.1519 288.0147 0000652  94.3908 282.8623 15.82197101  2789
STARLINK-35594          
1 66157U 25240M   25308.66670139 -.01494053  00000+0 -80587-2 0  9991
2 66157  53.1521 288.0104 0001019  86.0112 293.4657 15.82195791  2787
STARLINK-35587          
1 66158U 25240N   25308.66670139 -.01502915  00000+0 -81106-2 0  9997
2 66158  53.1522 288.0058 0000786 102.8200 278.6997 15.82204414  2787
STARLINK-35586          
1 66159U 25240P   25308.66670139 -.01509599  00000+0 -81585-2 0  9994
2 66159  53.1518 288.0008 0000707 104.1876 279.6845 15.82187279  2787
